{"type": "FeatureCollection", "features": [ {"type": "Feature", "properties": {"norad_id": 42741, "name": "EUTELSAT 172B", "group": "eutelsat", "lat": 0.0003618922726863496, "lon": 46.556580146111344, "alt_km": 35785.59584089799, "timestamp": "2025-12-21T09:37:22.319959+00:00", "meta": {"OBJECT_NAME": "EUTELSAT 172B", "OBJECT_ID": "2017-029B", "EPOCH": "2025-12-21T01:51:38.617056", "MEAN_MOTION": 1.00271482, "ECCENTRICITY": 2.14e-05, "INCLINATION": 0.0336, "RA_OF_ASC_NODE": 122.8073, "ARG_OF_PERICENTER": 335.7639, "MEAN_ANOMALY": 191.2452, "EPHEMERIS_TYPE": 0, "CLASSIFICATION_TYPE": "U", "NORAD_CAT_ID": 42741, "ELEMENT_SET_NO": 999, "REV_AT_EPOCH": 3194, "BSTAR": 0, "MEAN_MOTION_DOT": 1.7e-07, "MEAN_MOTION_DDOT": 0}, "tle": {"line1": "1 42741U 17029B   25355.07753029  .00000017  00000+0  00000+0 0  9996", "line2": "2 42741   0.0336 122.8073 0000214 335.7639 191.2452  1.00271482 31944"}}, "geometry": {"type": "Point", "coordinates": [46.556580146111344, 0.0003618922726863496]}}, {"type": "Feature", "properties": {"norad_id": 44334, "name": "EUTELSAT 7C", "group": "eutelsat", "lat": 0.04070367723272231, "lon": -118.46180052130525, "alt_km": 35771.55400152994, "timestamp": "2025-12-21T09:37:22.319971+00:00", "meta": {"OBJECT_NAME": "EUTELSAT 7C", "OBJECT_ID": "2019-034B", "EPOCH": "2025-12-21T03:32:38.808096", "MEAN_MOTION": 1.00275585, "ECCENTRICITY": 0.0003296, "INCLINATION": 0.0735, "RA_OF_ASC_NODE": 180.1639, "ARG_OF_PERICENTER": 76.9681, "MEAN_ANOMALY": 252.9905, "EPHEMERIS_TYPE": 0, "CLASSIFICATION_TYPE": "U", "NORAD_CAT_ID": 44334, "ELEMENT_SET_NO": 999, "REV_AT_EPOCH": 505, "BSTAR": 0, "MEAN_MOTION_DOT": 7.2e-07, "MEAN_MOTION_DDOT": 0}, "tle": {"line1": "1 44334U 19034B   25355.14767139  .00000072  00000+0  00000+0 0  9990", "line2": "2 44334   0.0735 180.1639 0003296  76.9681 252.9905  1.00275585  5055"}}, "geometry": {"type": "Point", "coordinates": [-118.46180052130525, 0.04070367723272231]}}, {"type": "Feature", "properties": {"norad_id": 44624, "name": "EUTELSAT 5 WEST B", "group": "eutelsat", "lat": -0.08449915204838944, "lon": -130.46265478450962, "alt_km": 35776.49958722067, "timestamp": "2025-12-21T09:37:22.319982+00:00", "meta": {"OBJECT_NAME": "EUTELSAT 5 WEST B", "OBJECT_ID": "2019-067A", "EPOCH": "2025-12-21T03:40:38.748864", "MEAN_MOTION": 1.00271336, "ECCENTRICITY": 0.000301, "INCLINATION": 0.0667, "RA_OF_ASC_NODE": 336.125, "ARG_OF_PERICENTER": 293.8202, "MEAN_ANOMALY": 230.1981, "EPHEMERIS_TYPE": 0, "CLASSIFICATION_TYPE": "U", "NORAD_CAT_ID": 44624, "ELEMENT_SET_NO": 999, "REV_AT_EPOCH": 2265, "BSTAR": 0, "MEAN_MOTION_DOT": -1.9e-07, "MEAN_MOTION_DDOT": 0}, "tle": {"line1": "1 44624U 19067A   25355.15322626 -.00000019  00000+0  00000+0 0  9999", "line2": "2 44624   0.0667 336.1250 0003010 293.8202 230.1981  1.00271336 22653"}}, "geometry": {"type": "Point", "coordinates": [-130.46265478450962, -0.08449915204838944]}}, {"type": "Feature", "properties": {"norad_id": 45027, "name": "EUTELSAT KONNECT", "group": "eutelsat", "lat": 0.012560501528402301, "lon": -118.23976764425521, "alt_km": 35778.40201243643, "timestamp": "2025-12-21T09:37:22.319993+00:00", "meta": {"OBJECT_NAME": "EUTELSAT KONNECT", "OBJECT_ID": "2020-005B", "EPOCH": "2025-12-21T03:32:38.808096", "MEAN_MOTION": 1.00277731, "ECCENTRICITY": 0.0001707, "INCLINATION": 0.0689, "RA_OF_ASC_NODE": 95.0259, "ARG_OF_PERICENTER": 180.8319, "MEAN_ANOMALY": 234.4854, "EPHEMERIS_TYPE": 0, "CLASSIFICATION_TYPE": "U", "NORAD_CAT_ID": 45027, "ELEMENT_SET_NO": 999, "REV_AT_EPOCH": 2255, "BSTAR": 0, "MEAN_MOTION_DOT": 7.4e-07, "MEAN_MOTION_DDOT": 0}, "tle": {"line1": "1 45027U 20005B   25355.14767139  .00000074  00000+0  00000+0 0  9992", "line2": "2 45027   0.0689  95.0259 0001707 180.8319 234.4854  1.00277731 22550"}}, "geometry": {"type": "Point", "coordinates": [-118.23976764425521, 0.012560501528402301]}}, {"type": "Feature", "properties": {"norad_id": 49056, "name": "EUTELSAT QUANTUM", "group": "eutelsat", "lat": -0.04171706819224782, "lon": -77.73586019513087, "alt_km": 35771.74276884495, "timestamp": "2025-12-21T09:37:22.320004+00:00", "meta": {"OBJECT_NAME": "EUTELSAT QUANTUM", "OBJECT_ID": "2021-069B", "EPOCH": "2025-12-21T03:09:06.881760", "MEAN_MOTION": 1.00272298, "ECCENTRICITY": 0.0003348, "INCLINATION": 0.0206, "RA_OF_ASC_NODE": 37.9704, "ARG_OF_PERICENTER": 241.7055, "MEAN_ANOMALY": 265.2643, "EPHEMERIS_TYPE": 0, "CLASSIFICATION_TYPE": "U", "NORAD_CAT_ID": 49056, "ELEMENT_SET_NO": 999, "REV_AT_EPOCH": 1614, "BSTAR": 0, "MEAN_MOTION_DOT": 1.49e-06, "MEAN_MOTION_DDOT": 0}, "tle": {"line1": "1 49056U 21069B   25355.13132965  .00000149  00000+0  00000+0 0  9994", "line2": "2 49056   0.0206  37.9704 0003348 241.7055 265.2643  1.00272298 16147"}}, "geometry": {"type": "Point", "coordinates": [-77.73586019513087, -0.04171706819224782]}}, {"type": "Feature", "properties": {"norad_id": 53765, "name": "EUTELSAT KONNECT VHTS", "group": "eutelsat", "lat": 0.015955193417260236, "lon": -122.69771962032077, "alt_km": 35773.903221699555, "timestamp": "2025-12-21T09:37:22.320015+00:00", "meta": {"OBJECT_NAME": "EUTELSAT KONNECT VHTS", "OBJECT_ID": "2022-110A", "EPOCH": "2025-12-21T03:32:38.808096", "MEAN_MOTION": 1.00273259, "ECCENTRICITY": 0.0002786, "INCLINATION": 0.0618, "RA_OF_ASC_NODE": 99.8078, "ARG_OF_PERICENTER": 134.255, "MEAN_ANOMALY": 271.8139, "EPHEMERIS_TYPE": 0, "CLASSIFICATION_TYPE": "U", "NORAD_CAT_ID": 53765, "ELEMENT_SET_NO": 999, "REV_AT_EPOCH": 504, "BSTAR": 0, "MEAN_MOTION_DOT": 4.1e-07, "MEAN_MOTION_DDOT": 0}, "tle": {"line1": "1 53765U 22110A   25355.14767139  .00000041  00000+0  00000+0 0  9993", "line2": "2 53765   0.0618  99.8078 0002786 134.2550 271.8139  1.00273259  5046"}}, "geometry": {"type": "Point", "coordinates": [-122.69771962032077, 0.015955193417260236]}}, {"type": "Feature", "properties": {"norad_id": 54048, "name": "EUTELSAT HOTBIRD 13F", "group": "eutelsat", "lat": -0.0554722885695235, "lon": -112.46756037028213, "alt_km": 35789.17516073548, "timestamp": "2025-12-21T09:37:22.320027+00:00", "meta": {"OBJECT_NAME": "EUTELSAT HOTBIRD 13F", "OBJECT_ID": "2022-134A", "EPOCH": "2025-12-21T02:59:15.326016", "MEAN_MOTION": 1.00274346, "ECCENTRICITY": 0.0002284, "INCLINATION": 0.0523, "RA_OF_ASC_NODE": 292.1414, "ARG_OF_PERICENTER": 68.9297, "MEAN_ANOMALY": 146.6896, "EPHEMERIS_TYPE": 0, "CLASSIFICATION_TYPE": "U", "NORAD_CAT_ID": 54048, "ELEMENT_SET_NO": 999, "REV_AT_EPOCH": 1159, "BSTAR": 0, "MEAN_MOTION_DOT": 1.11e-06, "MEAN_MOTION_DDOT": 0}, "tle": {"line1": "1 54048U 22134A   25355.12448294  .00000111  00000+0  00000+0 0  9998", "line2": "2 54048   0.0523 292.1414 0002284  68.9297 146.6896  1.00274346 11596"}}, "geometry": {"type": "Point", "coordinates": [-112.46756037028213, -0.0554722885695235]}}, {"type": "Feature", "properties": {"norad_id": 54225, "name": "EUTELSAT HOTBIRD 13G", "group": "eutelsat", "lat": -0.018196310570257203, "lon": -112.42686021148596, "alt_km": 35782.732699377484, "timestamp": "2025-12-21T09:37:22.320038+00:00", "meta": {"OBJECT_NAME": "EUTELSAT HOTBIRD 13G", "OBJECT_ID": "2022-146A", "EPOCH": "2025-12-21T03:24:38.628000", "MEAN_MOTION": 1.00273909, "ECCENTRICITY": 0.0001862, "INCLINATION": 0.0535, "RA_OF_ASC_NODE": 228.7562, "ARG_OF_PERICENTER": 309.3055, "MEAN_ANOMALY": 336.0609, "EPHEMERIS_TYPE": 0, "CLASSIFICATION_TYPE": "U", "NORAD_CAT_ID": 54225, "ELEMENT_SET_NO": 999, "REV_AT_EPOCH": 568, "BSTAR": 0, "MEAN_MOTION_DOT": 1.1e-06, "MEAN_MOTION_DDOT": 0}, "tle": {"line1": "1 54225U 22146A   25355.14211375  .00000110  00000+0  00000+0 0  9997", "line2": "2 54225   0.0535 228.7562 0001862 309.3055 336.0609  1.00273909  5684"}}, "geometry": {"type": "Point", "coordinates": [-112.42686021148596, -0.018196310570257203]}}, {"type": "Feature", "properties": {"norad_id": 54259, "name": "EUTELSAT 10B", "group": "eutelsat", "lat": 0.0069447469400246535, "lon": -115.43175682698545, "alt_km": 35788.262253161716, "timestamp": "2025-12-21T09:37:22.320050+00:00", "meta": {"OBJECT_NAME": "EUTELSAT 10B", "OBJECT_ID": "2022-157A", "EPOCH": "2025-12-21T03:24:38.628000", "MEAN_MOTION": 1.00272805, "ECCENTRICITY": 7.49e-05, "INCLINATION": 0.0623, "RA_OF_ASC_NODE": 96.4166, "ARG_OF_PERICENTER": 6.6781, "MEAN_ANOMALY": 48.0384, "EPHEMERIS_TYPE": 0, "CLASSIFICATION_TYPE": "U", "NORAD_CAT_ID": 54259, "ELEMENT_SET_NO": 999, "REV_AT_EPOCH": 1124, "BSTAR": 0, "MEAN_MOTION_DOT": 9.2e-07, "MEAN_MOTION_DDOT": 0}, "tle": {"line1": "1 54259U 22157A   25355.14211375  .00000092  00000+0  00000+0 0  9995", "line2": "2 54259   0.0623  96.4166 0000749   6.6781  48.0384  1.00272805 11248"}}, "geometry": {"type": "Point", "coordinates": [-115.43175682698545, 0.0069447469400246535]}}, {"type": "Feature", "properties": {"norad_id": 59346, "name": "EUTELSAT 36D", "group": "eutelsat", "lat": -0.04733985693317716, "lon": -89.59835822857623, "alt_km": 35785.70638224031, "timestamp": "2025-12-21T09:37:22.320061+00:00", "meta": {"OBJECT_NAME": "EUTELSAT 36D", "OBJECT_ID": "2024-059A", "EPOCH": "2025-12-21T03:05:44.704896", "MEAN_MOTION": 1.00273114, "ECCENTRICITY": 4.4e-05, "INCLINATION": 0.0249, "RA_OF_ASC_NODE": 26.7512, "ARG_OF_PERICENTER": 334.3962, "MEAN_ANOMALY": 171.0916, "EPHEMERIS_TYPE": 0, "CLASSIFICATION_TYPE": "U", "NORAD_CAT_ID": 59346, "ELEMENT_SET_NO": 999, "REV_AT_EPOCH": 636, "BSTAR": 0, "MEAN_MOTION_DOT": 0, "MEAN_MOTION_DDOT": 0}, "tle": {"line1": "1 59346U 24059A   25355.12898964  .00000000  00000+0  00000+0 0  9992", "line2": "2 59346   0.0249  26.7512 0000440 334.3962 171.0916  1.00273114  6364"}}, "geometry": {"type": "Point", "coordinates": [-89.59835822857623, -0.04733985693317716]}}]}